GLOBALSTAR M084 [+]     
1 38040U 11080A   23278.57590372 -.00000095  00000+0  49564-4 0  9991
2 38040  51.9990 137.8429 0001031  89.7249 287.1470 12.62266602544294
GLOBALSTAR M080 [+]     
1 38041U 11080B   23278.34588946 -.00000088  00000+0  89406-4 0  9992
2 38041  52.0042 139.9313 0001234  83.5094  87.9601 12.62265159544383
GLOBALSTAR M092 [+]     
1 38043U 11080D   23278.49051492 -.00000076  00000+0  15362-3 0  9997
2 38043  52.0076 185.2131 0000847  94.9246  75.0831 12.62272601543560
GLOBALSTAR M090 [+]     
1 38044U 11080E   23278.50817505 -.00000109  00000+0 -29429-4 0  9993
2 38044  51.9873  89.4223 0000597  76.4168 293.9849 12.62278109545236
GLOBALSTAR M097 [+]     
1 39072U 13005A   23278.55897497 -.00000086  00000+0  10179-3 0  9991
2 39072  52.0074   3.6901 0000404  65.4153 294.6756 12.62270791492430
GLOBALSTAR M093 [+]     
1 39073U 13005B   23278.53241688 -.00000082  00000+0  12042-3 0  9992
2 39073  51.9836 358.0674 0000474  40.2686 319.8216 12.62267100492383
